IRIDIUM 119             
1 42959U 17061E   25215.40086459 -.00000018  00000+0 -13495-4 0  9991
2 42959  86.4028 158.0827 0002019  77.8546 282.2876 14.34217444409269
IRIDIUM 107             
1 42960U 17061F   25215.35011776  .00000254  00000+0  83714-4 0  9998
2 42960  86.4048 158.1188 0001784 136.0680 224.0658 14.34217404409267
IRIDIUM 132             
1 42961U 17061G   25215.35646630  .00000255  00000+0  83969-4 0  9995
2 42961  86.4029 158.1018 0002773  73.4125 286.7375 14.34216447409263
IRIDIUM 136             
1 42962U 17061H   25215.38817891  .00000014  00000+0 -21787-5 0  9993
2 42962  86.4029 158.0941 0001960  79.8117 280.3300 14.34217777409283
IRIDIUM 139             
1 42963U 17061J   25215.32475236  .00000239  00000+0  78381-4 0  9990
2 42963  86.4028 158.1777 0002024  91.1217 269.0211 14.34217098409282
IRIDIUM 125             
1 42964U 17061K   25215.38183515  .00000232  00000+0  75719-4 0  9998
2 42964  86.4033 158.2087 0001797  70.3464 289.7926 14.34218040409306
IRIDIUM 135             
1 43070U 17083A   25215.63503701 -.00000006  00000+0 -93148-5 0  9990
2 43070  86.3940  94.7860 0002248  88.1285 272.0168 14.34217083398636
IRIDIUM 138             
1 43071U 17083B   25215.59063861  .00000014  00000+0 -19693-5 0  9995
2 43071  86.3929  94.4697 0002241  71.9863 288.1576 14.34217601398619
